NORAD_CAT_ID,OBJECT_NAME,OBJECT_TYPE,EPOCH,MEAN_MOTION,ECCENTRICITY,INCLINATION,RA_OF_ASC_NODE,ARG_OF_PERICENTER,MEAN_ANOMALY,BSTAR,MEAN_MOTION_DOT,MEAN_MOTION_DDOT,TLE_LINE0,TLE_LINE1,TLE_LINE2,SEMIMAJOR_AXIS,PERIOD,APOGEE,PERIGEE,DECAYED
52707.0,STARLINK-4007,PAYLOAD,2024-02-08 22:51:40,15.08842542,0.0001239,53.2166,304.6006,106.6373,253.4755,-5.6515e-05,-1.187e-05,0.0,0 STARLINK-4007,1 52707U 22053BD  24039.95255342 -.00001187  00000-0 -56515-4 0  9991,2 52707  53.2166 304.6006 0001239 106.6373 253.4755 15.08842542 96685,6917.873,95.437,540.595,538.88,0.0
52707.0,STARLINK-4007,PAYLOAD,2024-02-09 03:37:49,15.08845809,0.0001278,53.2168,303.7049,94.7721,265.3417,5.362e-06,-2.03e-06,0.0,0 STARLINK-4007,1 52707U 22053BD  24040.15126707 -.00000203  00000-0  53620-5 0  9999,2 52707  53.2168 303.7049 0001278  94.7721 265.3417 15.08845809 96238,6917.863,95.437,540.612,538.844,0.0
52707.0,STARLINK-4007,PAYLOAD,2024-02-09 17:56:18,15.08832537,0.0001358,53.2165,301.0322,95.2738,264.8409,4.9731e-05,5.04e-06,0.0,0 STARLINK-4007,1 52707U 22053BD  24040.74743914  .00000504  00000-0  49731-4 0  9999,2 52707  53.2165 301.0322 0001358  95.2738 264.8409 15.08832537 96322,6917.903,95.438,540.708,538.829,0.0
52707.0,STARLINK-4007,PAYLOAD,2024-02-10 03:28:36,15.08841723,0.0001473,53.2165,299.2474,109.3234,250.7917,0.00011433,1.532e-05,0.0,0 STARLINK-4007,1 52707U 22053BD  24041.14487180  .00001532  00000-0  11433-3 0  9993,2 52707  53.2165 299.2474 0001473 109.3234 250.7917 15.08841723 96385,6917.875,95.437,540.759,538.721,0.0
52707.0,STARLINK-4007,PAYLOAD,2024-02-10 22:33:15,15.08838861,0.0001597,53.2182,295.6737,110.5173,249.5991,8.5447e-05,1.072e-05,0.0,0 STARLINK-4007,1 52707U 22053BD  24041.93975803  .00001072  00000-0  85447-4 0  9990,2 52707  53.2182 295.6737 0001597 110.5173 249.5991 15.08838861 96982,6917.884,95.438,540.854,538.644,0.0
52707.0,STARLINK-4007,PAYLOAD,2024-02-11 03:19:24,15.08840285,0.0001329,53.2173,294.781,90.8536,269.2609,9.6079e-05,1.242e-05,0.0,0 STARLINK-4007,1 52707U 22053BD  24042.13847784  .00001242  00000-0  96079-4 0  9991,2 52707  53.2173 294.7810 0001329  90.8536 269.2609 15.08840285 96539,6917.88,95.438,540.664,538.825,0.0
52707.0,STARLINK-4007,PAYLOAD,2024-02-11 22:24:02,15.08829928,0.0001607,53.2177,291.2118,62.1385,297.977,0.00031521,4.731e-05,0.0,0 STARLINK-4007,1 52707U 22053BD  24042.93335922  .00004731  00000-0  31521-3 0  9991,2 52707  53.2177 291.2118 0001607  62.1385 297.9770 15.08829928 97134,6917.911,95.438,540.888,538.664,0.0
52707.0,STARLINK-4007,PAYLOAD,2024-02-11 23:59:24,15.08854805,0.0001342,53.2172,290.9138,80.2218,279.8926,0.00019138,2.76e-05,0.0,0 STARLINK-4007,1 52707U 22053BD  24042.99958545  .00002760  00000-0  19138-3 0  9999,2 52707  53.2172 290.9138 0001342  80.2218 279.8926 15.08854805 96660,6917.835,95.437,540.629,538.772,0.0
52707.0,STARLINK-4007,PAYLOAD,2024-02-12 15:53:17,15.08833848,0.000142,53.2176,287.9428,82.0385,278.0769,4.8249e-05,4.8e-06,0.0,0 STARLINK-4007,1 52707U 22053BD  24043.66200479  .00000480  00000-0  48249-4 0  9993,2 52707  53.2176 287.9428 0001420  82.0385 278.0769 15.08833848 96765,6917.899,95.438,540.747,538.782,0.0
52707.0,STARLINK-4007,PAYLOAD,2024-02-12 22:14:49,15.08840533,0.0001418,53.216,286.7556,80.3215,279.7938,2.5864e-05,1.24e-06,0.0,0 STARLINK-4007,1 52707U 22053BD  24043.92696031  .00000124  00000-0  25864-4 0  9998,2 52707  53.2160 286.7556 0001418  80.3215 279.7938 15.08840533 97280,6917.879,95.438,540.725,538.763,0.0
52707.0,STARLINK-4007,PAYLOAD,2024-02-12 23:50:12,15.08841937,0.0001404,53.2167,286.4583,84.9066,275.2086,3.214e-05,2.24e-06,0.0,0 STARLINK-4007,1 52707U 22053BD  24043.99319907  .00000224  00000-0  32140-4 0  9995,2 52707  53.2167 286.4583 0001404  84.9066 275.2086 15.08841937 96815,6917.874,95.437,540.711,538.768,0.0
52707.0,STARLINK-4007,PAYLOAD,2024-02-13 09:22:31,15.08841728,0.000135,53.2165,284.6746,93.214,266.9006,3.0798e-05,2.02e-06,0.0,0 STARLINK-4007,1 52707U 22053BD  24044.39063928  .00000202  00000-0  30798-4 0  9992,2 52707  53.2165 284.6746 0001350  93.2140 266.9006 15.08841728 97357,6917.875,95.437,540.674,538.806,0.0
52707.0,STARLINK-4007,PAYLOAD,2024-02-13 22:05:36,15.08846923,0.0001102,53.2156,282.2966,90.4779,269.634,5.5991e-05,6.04e-06,0.0,0 STARLINK-4007,1 52707U 22053BD  24044.92055575  .00000604  00000-0  55991-4 0  9998,2 52707  53.2156 282.2966 0001102  90.4779 269.6340 15.08846923 97439,6917.859,95.437,540.487,538.962,0.0
52707.0,STARLINK-4007,PAYLOAD,2024-02-14 01:16:21,15.08848264,0.0001222,53.2165,281.7012,88.4447,271.6685,0.0001892,2.725e-05,0.0,0 STARLINK-4007,1 52707U 22053BD  24045.05303178  .00002725  00000-0  18920-3 0  9994,2 52707  53.2165 281.7012 0001222  88.4447 271.6685 15.08848264 96970,6917.855,95.437,540.565,538.875,0.0
52707.0,STARLINK-4007,PAYLOAD,2024-02-14 09:13:17,15.08851999,0.0001411,53.2166,280.2153,89.4962,270.6192,1.38e-05,-6.8e-07,0.0,0 STARLINK-4007,1 52707U 22053BD  24045.38423077 -.00000068  00000-0  13800-4 0  9993,2 52707  53.2166 280.2153 0001411  89.4962 270.6192 15.08851999 97505,6917.844,95.437,540.685,538.733,0.0
52707.0,STARLINK-4007,PAYLOAD,2024-02-14 15:34:50,15.08840694,0.0001605,53.2155,279.0255,94.2851,265.8325,0.0001118,1.492e-05,0.0,0 STARLINK-4007,1 52707U 22053BD  24045.64919858  .00001492  00000-0  11180-3 0  9998,2 52707  53.2155 279.0255 0001605  94.2851 265.8325 15.08840694 97063,6917.878,95.438,540.854,538.633,0.0
52707.0,STARLINK-4007,PAYLOAD,2024-02-14 21:56:23,15.08843146,0.0001484,53.2153,277.836,98.4379,261.6782,0.00012929,1.77e-05,0.0,0 STARLINK-4007,1 52707U 22053BD  24045.91415635  .00001770  00000-0  12929-3 0  9993,2 52707  53.2153 277.8360 0001484  98.4379 261.6782 15.08843146 97583,6917.871,95.437,540.762,538.709,0.0
52707.0,STARLINK-4007,PAYLOAD,2024-02-15 01:07:09,15.08846554,0.0001562,53.2161,277.2406,99.826,260.2909,0.00014149,1.965e-05,0.0,0 STARLINK-4007,1 52707U 22053BD  24046.04663379  .00001965  00000-0  14149-3 0  9990,2 52707  53.2161 277.2406 0001562  99.8260 260.2909 15.08846554 97603,6917.86,95.437,540.806,538.645,0.0
52707.0,STARLINK-4007,PAYLOAD,2024-02-15 20:11:47,15.08830853,0.0001499,53.2168,273.6703,106.3405,253.7752,7.2446e-05,8.65e-06,0.0,0 STARLINK-4007,1 52707U 22053BD  24046.84152612  .00000865  00000-0  72446-4 0  9994,2 52707  53.2168 273.6703 0001499 106.3405 253.7752 15.08830853 97242,6917.908,95.438,540.81,538.736,0.0
52707.0,STARLINK-4007,PAYLOAD,2024-02-15 21:47:10,15.08841317,0.0001354,53.2165,273.3748,95.2755,264.8392,-3.1273e-06,-3.38e-06,0.0,0 STARLINK-4007,1 52707U 22053BD  24046.90776144 -.00000338  00000-0 -31273-5 0  9994,2 52707  53.2165 273.3748 0001354  95.2755 264.8392 15.08841317 97733,6917.876,95.437,540.678,538.805,0.0
52707.0,STARLINK-4007,PAYLOAD,2024-02-16 21:37:57,15.08840537,0.000136,53.2165,268.9142,97.1573,262.9574,3.3343e-05,2.43e-06,0.0,0 STARLINK-4007,1 52707U 22053BD  24047.90136260  .00000243  00000-0  33343-4 0  9996,2 52707  53.2165 268.9142 0001360  97.1573 262.9574 15.08840537 97887,6917.879,95.438,540.685,538.803,0.0
52707.0,STARLINK-4007,PAYLOAD,2024-02-17 00:48:43,15.08841493,0.0001297,53.2162,268.3178,98.857,261.2569,4.6868e-05,4.58e-06,0.0,0 STARLINK-4007,1 52707U 22053BD  24048.03384156  .00000458  00000-0  46868-4 0  9994,2 52707  53.2162 268.3178 0001297  98.8570 261.2569 15.08841493 97429,6917.876,95.437,540.638,538.844,0.0
52707.0,STARLINK-4007,PAYLOAD,2024-02-17 15:07:12,15.08833495,0.0001377,53.2171,265.643,93.3202,266.7947,7.1806e-05,8.55e-06,0.0,0 STARLINK-4007,1 52707U 22053BD  24048.63000857  .00000855  00000-0  71806-4 0  9994,2 52707  53.2171 265.6430 0001377  93.3202 266.7947 15.08833495 97996,6917.9,95.438,540.718,538.813,0.0
52707.0,STARLINK-4007,PAYLOAD,2024-02-17 19:53:22,15.08836822,0.0001335,53.217,264.751,98.4355,261.6788,6.4255e-05,7.35e-06,0.0,0 STARLINK-4007,1 52707U 22053BD  24048.82872708  .00000735  00000-0  64255-4 0  9994,2 52707  53.2170 264.7510 0001335  98.4355 261.6788 15.08836822 97548,6917.89,95.438,540.679,538.832,0.0
52707.0,STARLINK-4007,PAYLOAD,2024-02-17 21:28:45,15.08837544,0.0001334,53.217,264.457,101.1209,258.9933,6.9287e-05,8.15e-06,0.0,0 STARLINK-4007,1 52707U 22053BD  24048.89496668  .00000815  00000-0  69287-4 0  9997,2 52707  53.2170 264.4570 0001334 101.1209 258.9933 15.08837544 98038,6917.888,95.438,540.676,538.83,0.0
52707.0,STARLINK-4007,PAYLOAD,2024-02-18 07:01:04,15.08836107,0.0001269,53.2167,262.6715,94.9833,265.1304,7.5325e-05,9.11e-06,0.0,0 STARLINK-4007,1 52707U 22053BD  24049.29240846  .00000911  00000-0  75325-4 0  9994,2 52707  53.2167 262.6715 0001269  94.9833 265.1304 15.08836107 98096,6917.892,95.438,540.635,538.879,0.0
52707.0,STARLINK-4007,PAYLOAD,2024-02-18 22:54:54,15.08846614,0.0001329,53.2166,259.6979,107.4801,252.6336,7.6984e-05,9.38e-06,0.0,0 STARLINK-4007,1 52707U 22053BD  24049.95480273  .00000938  00000-0  76984-4 0  9998,2 52707  53.2166 259.6979 0001329 107.4801 252.6336 15.08846614 98196,6917.86,95.437,540.645,538.806,0.0
52707.0,STARLINK-4007,PAYLOAD,2024-02-19 06:51:50,15.08843086,0.0001303,53.2164,258.2093,77.3628,282.751,6.0512e-05,6.75e-06,0.0,0 STARLINK-4007,1 52707U 22053BD  24050.28600556  .00000675  00000-0  60512-4 0  9992,2 52707  53.2164 258.2093 0001303  77.3628 282.7510 15.08843086 97760,6917.871,95.437,540.637,538.835,0.0
52707.0,STARLINK-4007,PAYLOAD,2024-02-19 19:34:56,15.08836102,0.0001294,53.2164,255.831,87.0951,273.0189,3.2789e-05,2.34e-06,0.0,0 STARLINK-4007,1 52707U 22053BD  24050.81593239  .00000234  00000-0  32789-4 0  9996,2 52707  53.2164 255.8310 0001294  87.0951 273.0189 15.08836102 97846,6917.892,95.438,540.652,538.862,0.0
52707.0,STARLINK-4007,PAYLOAD,2024-02-19 22:45:42,15.08836166,0.0001246,53.2158,255.2355,87.9849,272.1286,2.2278e-05,6.7e-07,0.0,0 STARLINK-4007,1 52707U 22053BD  24050.94841198  .00000067  00000-0  22278-4 0  9996,2 52707  53.2158 255.2355 0001246  87.9849 272.1286 15.08836166 98348,6917.892,95.438,540.619,538.895,0.0
